COSMOS 2547             
1 46805U 20075A   26116.32568127 -.00000012  00000+0  00000+0 0  9999
2 46805  64.5968 194.2055 0008364 236.7383 123.2291  2.13100274 42806
GPS BIII-4              
1 46826U 20078A   26112.92753654 -.00000017  00000+0  00000+0 0  9993
2 46826  53.9891 213.0193 0070939 205.6597 155.6852  2.00564823 40404
GSAT0223 (GALILEO 27)   
1 49809U 21116A   26114.32314513 -.00000088  00000+0  00000+0 0  9992
2 49809  57.1776 343.1299 0000234 233.2925 308.9540  1.70475480 27263
GSAT0224 (GALILEO 28)   
1 49810U 21116B   26114.72218082 -.00000089  00000+0  00000+0 0  9993
2 49810  57.1774 343.1180 0000625  14.3979 165.3634  1.70475626 27297
GOES 18                 
1 51850U 22021A   26116.75209696  .00000085  00000+0  00000+0 0  9997
2 51850   0.0454  68.8293 0000512  19.4350 260.2358  1.00272846  6079
COSMOS 2557 (706K)      
1 52984U 22075A   26115.08260141 -.00000027  00000+0  00000+0 0  9999
2 52984  64.3294 316.3562 0010220 281.4601  78.4529  2.13101820 29588
METEOSAT-12 (MTG-I1)    
1 54743U 22170C   26116.85046991 -.00000019  00000+0  00000+0 0  9992
2 54743   0.7243  22.4011 0001123 334.1646 164.1169  1.00269592 12460
METEOR-M2 3             
1 57166U 23091A   26116.80692594  .00000010  00000+0  23264-4 0  9990
2 57166  98.6123 172.8258 0003248 335.8313  24.2713 14.24042278147209
COSMOS 2569 (703K)      
1 57517U 23114A   26116.63503520  .00000002  00000+0  00000+0 0  9996
2 57517  65.2747  74.3578 0012406 295.3839  64.4650  2.13103767 21169
METEOR-M2 4             
1 59051U 24039A   26116.83366845  .00000024  00000+0  30632-4 0  9990
2 59051  98.6976  76.7885 0006436 326.9900  33.0876 14.22423995111962
GSAT0225 (GALILEO 29)   
1 59598U 24079A   26116.51256791  .00000043  00000+0  00000+0 0  9995
2 59598  55.0873 102.5222 0002644 283.7060 268.0228  1.70474393 12438
GSAT0227 (GALILEO 30)   
1 59600U 24079C   26116.38355757  .00000043  00000+0  00000+0 0  9996
2 59600  55.0823 102.5246 0001210  13.3906 346.6071  1.70474390 12488
GSAT0232 (GALILEO 32)   
1 61182U 24167A   26115.45016990 -.00000037  00000+0  00000+0 0  9996
2 61182  55.2008 222.7596 0004844 214.4336 148.2272  1.70474394  9987
GSAT0226 (GALILEO 31)   
1 61183U 24167B   26116.47671715 -.00000039  00000+0  00000+0 0  9994
2 61183  55.1991 222.7387 0001799 194.9223 169.0997  1.70474411  9973
GSAT0233 (GALILEO 33)   
1 67160U 25302A   26116.60777961  .00000042  00000+0  00000+0 0  9995
2 67160  54.3025 103.5985 0002101 244.3299 296.6080  1.70474442  2241
GSAT0234 (GALILEO 34)   
1 67162U 25302C   26114.56077547  .00000043  00000+0  00000+0 0  9994
2 67162  54.3036 103.6556 0003906 293.1512 251.5938  1.70474332  2266
